{
  "type": "FeatureCollection",
  "name": "rios_abancay_tamburco",
  "crs": { "type": "name", "properties": { "name": "urn:ogc:def:crs:OGC:1.3:CRS84" } },
  "features": [
    {
      "type": "Feature",
      "properties": { "nombre": "Río Mariño (Eje Principal)", "tipo": "Río Principal", "cuenca": "Mariño" },
      "geometry": {
        "type": "LineString",
        "coordinates": [
          [-72.8450, -13.5780],
          [-72.8560, -13.5950],
          [-72.8680, -13.6120],
          [-72.8750, -13.6250],
          [-72.8820, -13.6380],
          [-72.8930, -13.6520],
          [-72.9150, -13.6680]
        ]
      }
    },
    {
      "type": "Feature",
      "properties": { "nombre": "Quebrada Marcahuasi (Tamburco)", "tipo": "Quebrada Crítica", "cuenca": "Mariño" },
      "geometry": {
        "type": "LineString",
        "coordinates": [
          [-72.8520, -13.5900],
          [-72.8610, -13.6020],
          [-72.8680, -13.6120]
        ]
      }
    },
    {
      "type": "Feature",
      "properties": { "nombre": "Quebrada Sahuanay", "tipo": "Quebrada / Colector", "cuenca": "Mariño" },
      "geometry": {
        "type": "LineString",
        "coordinates": [
          [-72.8780, -13.5920],
          [-72.8740, -13.6080],
          [-72.8750, -13.6250]
        ]
      }
    },
    {
      "type": "Feature",
      "properties": { "nombre": "Quebrada Chontay", "tipo": "Quebrada / Colector", "cuenca": "Mariño" },
      "geometry": {
        "type": "LineString",
        "coordinates": [
          [-72.8950, -13.6050],
          [-72.8880, -13.6200],
          [-72.8820, -13.6380]
        ]
      }
    },
    {
      "type": "Feature",
      "properties": { "nombre": "Río Colcaque / Afluente Occidente", "tipo": "Tributario", "cuenca": "Mariño" },
      "geometry": {
        "type": "LineString",
        "coordinates": [
          [-72.9200, -13.6350],
          [-72.9050, -13.6450],
          [-72.8930, -13.6520]
        ]
      }
    }
  ]
}